[
    {
        "Altitude(m)": 607897.6056177658,
        "Argument of Periapsis(deg)": 0.0,
        "Eccentricity": 0.0,
        "Inclination(deg)": 60.0,
        "Latitude(deg)": -14.29288367770606,
        "Longitude(deg)": 86.6187621875766,
        "Mean Anomaly(deg)": -16.363600000000012,
        "RAAN(deg)": 195.00000000000003,
        "Satellite Name": "Test1 879",
        "Satellite Number": 879,
        "Semi-Major Axis(m)": 6980739.136638005,
        "Time(s)": 0
    },
    {
        "Altitude(m)": 607750.8071897846,
        "Argument of Periapsis(deg)": 0.00010418945913296404,
        "Eccentricity": 0.0,
        "Inclination(deg)": 60.0,
        "Latitude(deg)": -13.758724935049367,
        "Longitude(deg)": 86.90583077737834,
        "Mean Anomaly(deg)": -15.743493854538157,
        "RAAN(deg)": 194.99957995086024,
        "Satellite Name": "Test1 879",
        "Satellite Number": 879,
        "Semi-Major Axis(m)": 6980739.136638005,
        "Time(s)": 10
    }
]